{
  "norad_id": 68378,
  "name": "SUPERVIEW NEO-2 OBJECT B",
  "history": [
    {
      "epoch": "2026-03-27T01:10:54.793056Z",
      "apogee_km": 512.9592952162666,
      "perigee_km": 498.64607014923786,
      "latitude_deg": 3.3207928952215955e-05,
      "longitude_deg": -107.69343641169387,
      "height_km": 508.60239146951204,
      "semi_major_axis_km": 6883.9396826827515,
      "eccentricity": 0.00103961,
      "inclination_deg": 97.4356,
      "raan_deg": 94.5245,
      "arg_perigee_deg": 272.384,
      "mean_anomaly_deg": 87.6205,
      "mean_motion_rev_day": 15.20012563
    }
  ]
}